start=new Date('2022-11-05T00:00:00.000Z').valueOf();
sats=[{"OBJECT_TYPE":"PAYLOAD","TLE_LINE2":"2 53604  53.2188 318.9562 0001485  47.1679 296.1335 15.08823549  1301","ELEMENT_SET_NO":"999","CLASSIFICATION_TYPE":"U","TIME_SYSTEM":"UTC","MEAN_MOTION_DOT":"0.00007226","ARG_OF_PERICENTER":"47.1679","MEAN_MOTION":"15.08823549","NORAD_CAT_ID":"53604","DECAY_DATE":null,"MEAN_ANOMALY":"296.1335","PERIAPSIS":"538.768","EPHEMERIS_TYPE":"0","SITE":"AFETR","BSTAR":"0.00047184000000","APOAPSIS":"540.823","ECCENTRICITY":"0.00014850","REF_FRAME":"TEME","PERIOD":"95.439","LAUNCH_DATE":"2022-08-28","OBJECT_NAME":"STARLINK-4690","INCLINATION":"53.2188","RCS_SIZE":"LARGE","FILE":"3645105","GP_ID":"216938758","TLE_LINE1":"1 53604U 22104S   22309.00001157  .00007226  00000-0  47184-3 0  9991","OBJECT_ID":"2022-104S","SEMIMAJOR_AXIS":"6917.931","MEAN_MOTION_DDOT":"0.0000000000000","REV_AT_EPOCH":"130","COUNTRY_CODE":"US","MEAN_ELEMENT_THEORY":"SGP4","EPOCH":"2022-11-05T00:00:00.999648","CENTER_NAME":"EARTH","RA_OF_ASC_NODE":"318.9562"},{"SITE":"AFETR","BSTAR":"0.00077380000000","APOAPSIS":"540.941","ECCENTRICITY":"0.00016250","REF_FRAME":"TEME","PERIOD":"95.439","LAUNCH_DATE":"2022-08-28","OBJECT_NAME":"STARLINK-4693","PERIAPSIS":"538.692","EPHEMERIS_TYPE":"0","ARG_OF_PERICENTER":"51.3102","NORAD_CAT_ID":"53605","MEAN_MOTION":"15.08816754","DECAY_DATE":null,"MEAN_ANOMALY":"9.8816","OBJECT_TYPE":"PAYLOAD","TLE_LINE2":"2 53605  53.2186 323.7833 0001625  51.3102   9.8816 15.08816754  1302","ELEMENT_SET_NO":"999","TIME_SYSTEM":"UTC","CLASSIFICATION_TYPE":"U","MEAN_MOTION_DOT":"0.00012041","MEAN_ELEMENT_THEORY":"SGP4","COUNTRY_CODE":"US","EPOCH":"2022-11-05T00:00:00.999648","CENTER_NAME":"EARTH","RA_OF_ASC_NODE":"323.7833","SEMIMAJOR_AXIS":"6917.951","MEAN_MOTION_DDOT":"0.0000000000000","REV_AT_EPOCH":"130","TLE_LINE1":"1 53605U 22104T   22309.00001157  .00012041  00000-0  77380-3 0  9994","OBJECT_ID":"2022-104T","INCLINATION":"53.2186","FILE":"3645105","RCS_SIZE":"LARGE","GP_ID":"216939796"},{"DECAY_DATE":null,"MEAN_ANOMALY":"209.7407","ARG_OF_PERICENTER":"46.1946","MEAN_MOTION":"15.08874034","NORAD_CAT_ID":"53606","TIME_SYSTEM":"UTC","CLASSIFICATION_TYPE":"U","TLE_LINE2":"2 53606  53.2124 314.1155 0001731  46.1946 209.7407 15.08874034  1304","ELEMENT_SET_NO":"999","MEAN_MOTION_DOT":"0.00042174","OBJECT_TYPE":"PAYLOAD","LAUNCH_DATE":"2022-08-28","OBJECT_NAME":"STARLINK-4590","SITE":"AFETR","APOAPSIS":"540.839","BSTAR":"0.00264970000000","PERIOD":"95.435","ECCENTRICITY":"0.00017310","REF_FRAME":"TEME","EPHEMERIS_TYPE":"0","PERIAPSIS":"538.444","OBJECT_ID":"2022-104U","TLE_LINE1":"1 53606U 22104U   22309.00001157  .00042174  00000-0  26497-2 0  9997","GP_ID":"216939341","INCLINATION":"53.2124","RCS_SIZE":"LARGE","FILE":"3645105","EPOCH":"2022-11-05T00:00:00.999648","MEAN_ELEMENT_THEORY":"SGP4","COUNTRY_CODE":"US","CENTER_NAME":"EARTH","RA_OF_ASC_NODE":"314.1155","REV_AT_EPOCH":"130","MEAN_MOTION_DDOT":"0.0000000000000","SEMIMAJOR_AXIS":"6917.776"},{"TLE_LINE2":"2 53607  53.2170 319.0695 0001782  47.4911 235.7872 15.08830963  1309","ELEMENT_SET_NO":"999","CLASSIFICATION_TYPE":"U","TIME_SYSTEM":"UTC","MEAN_MOTION_DOT":"-0.00004746","OBJECT_TYPE":"PAYLOAD","DECAY_DATE":null,"MEAN_ANOMALY":"235.7872","ARG_OF_PERICENTER":"47.4911","MEAN_MOTION":"15.08830963","NORAD_CAT_ID":"53607","EPHEMERIS_TYPE":"0","PERIAPSIS":"538.540","LAUNCH_DATE":"2022-08-28","OBJECT_NAME":"STARLINK-4591","SITE":"AFETR","BSTAR":"-0.00028035000000","APOAPSIS":"541.006","ECCENTRICITY":"0.00017820","REF_FRAME":"TEME","PERIOD":"95.438","GP_ID":"216939002","INCLINATION":"53.2170","RCS_SIZE":"LARGE","FILE":"3645105","OBJECT_ID":"2022-104V","TLE_LINE1":"1 53607U 22104V   22309.00001157 -.00004746  00000-0 -28035-3 0  9994","MEAN_MOTION_DDOT":"0.0000000000000","REV_AT_EPOCH":"130","SEMIMAJOR_AXIS":"6917.908","MEAN_ELEMENT_THEORY":"SGP4","COUNTRY_CODE":"US","EPOCH":"2022-11-05T00:00:00.999648","CENTER_NAME":"EARTH","RA_OF_ASC_NODE":"319.0695"},{"SEMIMAJOR_AXIS":"6917.816","MEAN_MOTION_DDOT":"0.0000000000000","REV_AT_EPOCH":"130","MEAN_ELEMENT_THEORY":"SGP4","COUNTRY_CODE":"US","EPOCH":"2022-11-05T00:00:00.999648","CENTER_NAME":"EARTH","RA_OF_ASC_NODE":"314.1901","INCLINATION":"53.2139","FILE":"3645105","RCS_SIZE":"LARGE","GP_ID":"216939177","TLE_LINE1":"1 53608U 22104W   22309.00001157 -.00003429  00000-0 -19730-3 0  9994","OBJECT_ID":"2022-104W","PERIAPSIS":"538.419","EPHEMERIS_TYPE":"0","APOAPSIS":"540.942","SITE":"AFETR","BSTAR":"-0.00019730000000","REF_FRAME":"TEME","ECCENTRICITY":"0.00018240","PERIOD":"95.436","LAUNCH_DATE":"2022-08-28","OBJECT_NAME":"STARLINK-4647","OBJECT_TYPE":"PAYLOAD","ELEMENT_SET_NO":"999","TLE_LINE2":"2 53608  53.2139 314.1901 0001824  45.6821 170.0305 15.08861213  1302","TIME_SYSTEM":"UTC","CLASSIFICATION_TYPE":"U","MEAN_MOTION_DOT":"-0.00003429","ARG_OF_PERICENTER":"45.6821","NORAD_CAT_ID":"53608","MEAN_MOTION":"15.08861213","DECAY_DATE":null,"MEAN_ANOMALY":"170.0305"},{"SEMIMAJOR_AXIS":"6917.911","MEAN_MOTION_DDOT":"0.0000000000000","REV_AT_EPOCH":"130","CENTER_NAME":"EARTH","RA_OF_ASC_NODE":"318.7885","COUNTRY_CODE":"US","MEAN_ELEMENT_THEORY":"SGP4","EPOCH":"2022-11-05T00:00:00.999648","RCS_SIZE":"LARGE","FILE":"3645105","INCLINATION":"53.2165","GP_ID":"216939516","TLE_LINE1":"1 53609U 22104X   22309.00001157 -.00119985  00000-0 -76500-2 0  9997","OBJECT_ID":"2022-104X","PERIAPSIS":"538.526","EPHEMERIS_TYPE":"0","ECCENTRICITY":"0.00018080","REF_FRAME":"TEME","PERIOD":"95.438","SITE":"AFETR","APOAPSIS":"541.027","BSTAR":"-0.00765000000000","OBJECT_NAME":"STARLINK-4660","LAUNCH_DATE":"2022-08-28","OBJECT_TYPE":"PAYLOAD","MEAN_MOTION_DOT":"-0.00119985","ELEMENT_SET_NO":"999","TLE_LINE2":"2 53609  53.2165 318.7885 0001808  56.0721   7.4131 15.08829848  1308","TIME_SYSTEM":"UTC","CLASSIFICATION_TYPE":"U","MEAN_MOTION":"15.08829848","NORAD_CAT_ID":"53609","ARG_OF_PERICENTER":"56.0721","MEAN_ANOMALY":"7.4131","DECAY_DATE":null},{"PERIAPSIS":"538.507","EPHEMERIS_TYPE":"0","PERIOD":"95.434","ECCENTRICITY":"0.00015130","REF_FRAME":"TEME","BSTAR":"-0.00792460000000","SITE":"AFETR","APOAPSIS":"540.601","OBJECT_NAME":"STARLINK-4610","LAUNCH_DATE":"2022-08-28","OBJECT_TYPE":"PAYLOAD","MEAN_MOTION_DOT":"-0.00124450","TIME_SYSTEM":"UTC","CLASSIFICATION_TYPE":"U","TLE_LINE2":"2 53610  53.2137 314.1233 0001513  53.0760 197.6489 15.08902660  1301","ELEMENT_SET_NO":"999","NORAD_CAT_ID":"53610","MEAN_MOTION":"15.08902660","ARG_OF_PERICENTER":"53.0760","MEAN_ANOMALY":"197.6489","DECAY_DATE":null,"SEMIMAJOR_AXIS":"6917.689","REV_AT_EPOCH":"130","MEAN_MOTION_DDOT":"0.0000000000000","RA_OF_ASC_NODE":"314.1233","CENTER_NAME":"EARTH","EPOCH":"2022-11-05T00:00:00.999648","COUNTRY_CODE":"US","MEAN_ELEMENT_THEORY":"SGP4","FILE":"3645105","RCS_SIZE":"LARGE","INCLINATION":"53.2137","GP_ID":"216939622","TLE_LINE1":"1 53610U 22104Y   22309.00001157 -.00124450  00000-0 -79246-2 0  9992","OBJECT_ID":"2022-104Y"},{"OBJECT_TYPE":"PAYLOAD","MEAN_MOTION_DOT":"-0.00057876","ELEMENT_SET_NO":"999","TLE_LINE2":"2 53611  53.2146 314.2279 0001589  48.2682 147.6634 15.08829686  1308","TIME_SYSTEM":"UTC","CLASSIFICATION_TYPE":"U","NORAD_CAT_ID":"53611","MEAN_MOTION":"15.08829686","ARG_OF_PERICENTER":"48.2682","MEAN_ANOMALY":"147.6634","DECAY_DATE":null,"PERIAPSIS":"538.678","EPHEMERIS_TYPE":"0","ECCENTRICITY":"0.00015890","REF_FRAME":"TEME","PERIOD":"95.438","SITE":"AFETR","BSTAR":"-0.00364880000000","APOAPSIS":"540.876","OBJECT_NAME":"STARLINK-4650","LAUNCH_DATE":"2022-08-28","RCS_SIZE":"LARGE","FILE":"3645105","INCLINATION":"53.2146","GP_ID":"216938584","TLE_LINE1":"1 53611U 22104Z   22309.00001157 -.00057876  00000-0 -36488-2 0  9991","OBJECT_ID":"2022-104Z","SEMIMAJOR_AXIS":"6917.912","MEAN_MOTION_DDOT":"0.0000000000000","REV_AT_EPOCH":"130","RA_OF_ASC_NODE":"314.2279","CENTER_NAME":"EARTH","COUNTRY_CODE":"US","MEAN_ELEMENT_THEORY":"SGP4","EPOCH":"2022-11-05T00:00:00.999648"},{"MEAN_MOTION_DDOT":"0.0000000000000","REV_AT_EPOCH":"130","SEMIMAJOR_AXIS":"6917.760","COUNTRY_CODE":"US","MEAN_ELEMENT_THEORY":"SGP4","EPOCH":"2022-11-05T00:00:00.999648","CENTER_NAME":"EARTH","RA_OF_ASC_NODE":"314.0738","GP_ID":"216938759","INCLINATION":"53.2135","RCS_SIZE":"LARGE","FILE":"3645105","OBJECT_ID":"2022-104AA","TLE_LINE1":"1 53612U 22104AA  22309.00001157  .00022419  00000-0  14207-2 0  9990","EPHEMERIS_TYPE":"0","PERIAPSIS":"538.370","LAUNCH_DATE":"2022-08-28","OBJECT_NAME":"STARLINK-4658","BSTAR":"0.00142070000000","SITE":"AFETR","APOAPSIS":"540.880","REF_FRAME":"TEME","ECCENTRICITY":"0.00018140","PERIOD":"95.435","ELEMENT_SET_NO":"999","TLE_LINE2":"2 53612  53.2135 314.0738 0001814  54.0335 221.8845 15.08879358  1306","TIME_SYSTEM":"UTC","CLASSIFICATION_TYPE":"U","MEAN_MOTION_DOT":"0.00022419","OBJECT_TYPE":"PAYLOAD","DECAY_DATE":null,"MEAN_ANOMALY":"221.8845","ARG_OF_PERICENTER":"54.0335","MEAN_MOTION":"15.08879358","NORAD_CAT_ID":"53612"},{"PERIAPSIS":"538.495","EPHEMERIS_TYPE":"0","SITE":"AFETR","BSTAR":"-0.00118320000000","APOAPSIS":"540.753","ECCENTRICITY":"0.00016320","REF_FRAME":"TEME","PERIOD":"95.435","LAUNCH_DATE":"2022-08-28","OBJECT_NAME":"STARLINK-4655","OBJECT_TYPE":"PAYLOAD","ELEMENT_SET_NO":"999","TLE_LINE2":"2 53613  53.2150 314.1505 0001632  60.4791 175.2531 15.08879740  1301","CLASSIFICATION_TYPE":"U","TIME_SYSTEM":"UTC","MEAN_MOTION_DOT":"-0.00019090","ARG_OF_PERICENTER":"60.4791","NORAD_CAT_ID":"53613","MEAN_MOTION":"15.08879740","DECAY_DATE":null,"MEAN_ANOMALY":"175.2531","SEMIMAJOR_AXIS":"6917.759","MEAN_MOTION_DDOT":"0.0000000000000","REV_AT_EPOCH":"130","MEAN_ELEMENT_THEORY":"SGP4","COUNTRY_CODE":"US","EPOCH":"2022-11-05T00:00:00.999648","CENTER_NAME":"EARTH","RA_OF_ASC_NODE":"314.1505","INCLINATION":"53.2150","RCS_SIZE":"LARGE","FILE":"3645105","GP_ID":"216939797","TLE_LINE1":"1 53613U 22104AB  22309.00001157 -.00019090  00000-0 -11832-2 0  9995","OBJECT_ID":"2022-104AB"}];
